IXPE                    
1 49954U 21121A   24037.91667824  .00004776  00000+0  34103-3 0  9994
2 49954   0.2294 286.6410 0009927 131.2309 302.7383 14.96385933  5791
